{
  "type": "FeatureCollection",
  "features": [
    {
      "type": "Feature",
      "properties": {
        "norad_id": 66850,
        "name": "STARLINK-36105",
        "group": "last-30-days",
        "lat": 12.589533208642466,
        "lon": -133.2200829740861,
        "alt_km": 373.0525402049543,
        "timestamp": "2025-12-22T20:43:44.566376+00:00",
        "meta_object_name": "STARLINK-36105",
        "meta_object_id": "2025-281C",
        "meta_epoch": "2025-12-22T14:00:01.999872",
        "meta_mean_motion": 15.65786664,
        "meta_eccentricity": 0.00013776,
        "meta_inclination": 43.0006,
        "meta_ra_of_asc_node": 62.3232,
        "meta_arg_of_pericenter": 285.5961,
        "meta_mean_anomaly": 94.0829,
        "meta_ephemeris_type": 0,
        "meta_classification_type": "U",
        "meta_norad_cat_id": 66850,
        "meta_element_set_no": 999,
        "meta_rev_at_epoch": 297,
        "meta_bstar": -0.02130479,
        "meta_mean_motion_dot": -0.01959786,
        "meta_mean_motion_ddot": 0,
        "tle_line1": "1 66850U 25281C   25356.58335648 -.01959786  00000+0 -21305-1 0  9994",
        "tle_line2": "2 66850  43.0006  62.3232 0001377 285.5961  94.0829 15.65786664  2976"
      },
      "geometry": {
        "type": "Point",
        "coordinates": [
          -133.2200829740861,
          12.589533208642466
        ]
      }
    },
    {
      "type": "Feature",
      "properties": {
        "norad_id": 66851,
        "name": "STARLINK-36094",
        "group": "last-30-days",
        "lat": 11.317342206444906,
        "lon": -131.7602953300167,
        "alt_km": 373.1899390744029,
        "timestamp": "2025-12-22T20:43:44.566385+00:00",
        "meta_object_name": "STARLINK-36094",
        "meta_object_id": "2025-281D",
        "meta_epoch": "2025-12-22T14:00:01.999872",
        "meta_mean_motion": 15.6578375,
        "meta_eccentricity": 0.00013862,
        "meta_inclination": 43.0005,
        "meta_ra_of_asc_node": 62.3182,
        "meta_arg_of_pericenter": 284.0679,
        "meta_mean_anomaly": 97.528,
        "meta_ephemeris_type": 0,
        "meta_classification_type": "U",
        "meta_norad_cat_id": 66851,
        "meta_element_set_no": 999,
        "meta_rev_at_epoch": 297,
        "meta_bstar": -0.021238964,
        "meta_mean_motion_dot": -0.01954251,
        "meta_mean_motion_ddot": 0,
        "tle_line1": "1 66851U 25281D   25356.58335648 -.01954251  00000+0 -21239-1 0  9993",
        "tle_line2": "2 66851  43.0005  62.3182 0001386 284.0679  97.5280 15.65783750  2972"
      },
      "geometry": {
        "type": "Point",
        "coordinates": [
          -131.7602953300167,
          11.317342206444906
        ]
      }
    },
    {
      "type": "Feature",
      "properties": {
        "norad_id": 66852,
        "name": "STARLINK-35992",
        "group": "last-30-days",
        "lat": 10.036146258430197,
        "lon": -130.31049543267684,
        "alt_km": 373.38516448756127,
        "timestamp": "2025-12-22T20:43:44.566397+00:00",
        "meta_object_name": "STARLINK-35992",
        "meta_object_id": "2025-281E",
        "meta_epoch": "2025-12-22T14:00:01.999872",
        "meta_mean_motion": 15.65788611,
        "meta_eccentricity": 0.00014311,
        "meta_inclination": 43.0009,
        "meta_ra_of_asc_node": 62.3139,
        "meta_arg_of_pericenter": 285.0706,
        "meta_mean_anomaly": 98.4418,
        "meta_ephemeris_type": 0,
        "meta_classification_type": "U",
        "meta_norad_cat_id": 66852,
        "meta_element_set_no": 999,
        "meta_rev_at_epoch": 297,
        "meta_bstar": -0.021325959,
        "meta_mean_motion_dot": -0.01961678,
        "meta_mean_motion_ddot": 0,
        "tle_line1": "1 66852U 25281E   25356.58335648 -.01961678  00000+0 -21326-1 0  9992",
        "tle_line2": "2 66852  43.0009  62.3139 0001431 285.0706  98.4418 15.65788611  2976"
      },
      "geometry": {
        "type": "Point",
        "coordinates": [
          -130.31049543267684,
          10.036146258430197
        ]
      }
    },
    {
      "type": "Feature",
      "properties": {
        "norad_id": 66853,
        "name": "STARLINK-35986",
        "group": "last-30-days",
        "lat": 8.749459335787312,
        "lon": -128.87378901520663,
        "alt_km": 373.5354338891484,
        "timestamp": "2025-12-22T20:43:44.566409+00:00",
        "meta_object_name": "STARLINK-35986",
        "meta_object_id": "2025-281F",
        "meta_epoch": "2025-12-22T14:00:01.999872",
        "meta_mean_motion": 15.65791689,
        "meta_eccentricity": 0.00013926,
        "meta_inclination": 43.0008,
        "meta_ra_of_asc_node": 62.3091,
        "meta_arg_of_pericenter": 285.5584,
        "meta_mean_anomaly": 99.8688,
        "meta_ephemeris_type": 0,
        "meta_classification_type": "U",
        "meta_norad_cat_id": 66853,
        "meta_element_set_no": 999,
        "meta_rev_at_epoch": 297,
        "meta_bstar": -0.021363134,
        "meta_mean_motion_dot": -0.01964878,
        "meta_mean_motion_ddot": 0,
        "tle_line1": "1 66853U 25281F   25356.58335648 -.01964878  00000+0 -21363-1 0  9999",
        "tle_line2": "2 66853  43.0008  62.3091 0001392 285.5584  99.8688 15.65791689  2971"
      },
      "geometry": {
        "type": "Point",
        "coordinates": [
          -128.87378901520663,
          8.749459335787312
        ]
      }
    },
    {
      "type": "Feature",
      "properties": {
        "norad_id": 66854,
        "name": "STARLINK-36087",
        "group": "last-30-days",
        "lat": 7.4582155229141796,
        "lon": -127.44878735425628,
        "alt_km": 373.6868783998643,
        "timestamp": "2025-12-22T20:43:44.566419+00:00",
        "meta_object_name": "STARLINK-36087",
        "meta_object_id": "2025-281G",
        "meta_epoch": "2025-12-22T14:00:01.999872",
        "meta_mean_motion": 15.65788541,
        "meta_eccentricity": 0.00013478,
        "meta_inclination": 43.0003,
        "meta_ra_of_asc_node": 62.3036,
        "meta_arg_of_pericenter": 286.2966,
        "meta_mean_anomaly": 101.0471,
        "meta_ephemeris_type": 0,
        "meta_classification_type": "U",
        "meta_norad_cat_id": 66854,
        "meta_element_set_no": 999,
        "meta_rev_at_epoch": 297,
        "meta_bstar": -0.021294156,
        "meta_mean_motion_dot": -0.01959034,
        "meta_mean_motion_ddot": 0,
        "tle_line1": "1 66854U 25281G   25356.58335648 -.01959034  00000+0 -21294-1 0  9991",
        "tle_line2": "2 66854  43.0003  62.3036 0001347 286.2966 101.0471 15.65788541  2977"
      },
      "geometry": {
        "type": "Point",
        "coordinates": [
          -127.44878735425628,
          7.4582155229141796
        ]
      }
    },
    {
      "type": "Feature",
      "properties": {
        "norad_id": 66855,
        "name": "STARLINK-36090",
        "group": "last-30-days",
        "lat": 6.161586768972684,
        "lon": -126.02999489023067,
        "alt_km": 373.8456152552408,
        "timestamp": "2025-12-22T20:43:44.566429+00:00",
        "meta_object_name": "STARLINK-36090",
        "meta_object_id": "2025-281H",
        "meta_epoch": "2025-12-22T14:00:01.999872",
        "meta_mean_motion": 15.65787997,
        "meta_eccentricity": 0.00013897,
        "meta_inclination": 43.0005,
        "meta_ra_of_asc_node": 62.2992,
        "meta_arg_of_pericenter": 285.6333,
        "meta_mean_anomaly": 103.6291,
        "meta_ephemeris_type": 0,
        "meta_classification_type": "U",
        "meta_norad_cat_id": 66855,
        "meta_element_set_no": 999,
        "meta_rev_at_epoch": 285,
        "meta_bstar": -0.021299841,
        "meta_mean_motion_dot": -0.01959488,
        "meta_mean_motion_ddot": 0,
        "tle_line1": "1 66855U 25281H   25356.58335648 -.01959488  00000+0 -21300-1 0  9993",
        "tle_line2": "2 66855  43.0005  62.2992 0001389 285.6333 103.6291 15.65787997  2856"
      },
      "geometry": {
        "type": "Point",
        "coordinates": [
          -126.02999489023067,
          6.161586768972684
        ]
      }
    },
    {
      "type": "Feature",
      "properties": {
        "norad_id": 66856,
        "name": "STARLINK-36072",
        "group": "last-30-days",
        "lat": 4.86216965484765,
        "lon": -124.61989857703207,
        "alt_km": 374.0076156198338,
        "timestamp": "2025-12-22T20:43:44.566439+00:00",
        "meta_object_name": "STARLINK-36072",
        "meta_object_id": "2025-281J",
        "meta_epoch": "2025-12-22T14:00:01.999872",
        "meta_mean_motion": 15.65787003,
        "meta_eccentricity": 0.00012763,
        "meta_inclination": 43.0008,
        "meta_ra_of_asc_node": 62.2941,
        "meta_arg_of_pericenter": 288.463,
        "meta_mean_anomaly": 102.7137,
        "meta_ephemeris_type": 0,
        "meta_classification_type": "U",
        "meta_norad_cat_id": 66856,
        "meta_element_set_no": 999,
        "meta_rev_at_epoch": 297,
        "meta_bstar": -0.021259015,
        "meta_mean_motion_dot": -0.01956023,
        "meta_mean_motion_ddot": 0,
        "tle_line1": "1 66856U 25281J   25356.58335648 -.01956023  00000+0 -21259-1 0  9999",
        "tle_line2": "2 66856  43.0008  62.2941 0001276 288.4630 102.7137 15.65787003  2970"
      },
      "geometry": {
        "type": "Point",
        "coordinates": [
          -124.61989857703207,
          4.86216965484765
        ]
      }
    }
  ]
}